KUIPER-00266            
1 67789U 26030AB  26193.87375546  .00001860  00000+0  27287-3 0  9997
2 67789  51.9014 359.5622 0002490 168.4551 191.6469 14.79942030 23994
KUIPER-00268            
1 67790U 26030AC  26193.91027191  .00001747  00000+0  25825-3 0  9994
2 67790  51.9053 356.9154 0000605 115.5725 244.5300 14.79911540 24032
KUIPER-00270            
1 67791U 26030AD  26193.75190635  .00001843  00000+0  27027-3 0  9994
2 67791  51.8997 347.5977 0000865  36.5271 323.5750 14.79998727 24156
KUIPER-00274            
1 67792U 26030AE  26193.86298016  .00001458  00000+0  22019-3 0  9997
2 67792  51.9040   9.6033 0000638 156.5523 203.5469 14.79927757 23852
KUIPER-00275            
1 67793U 26030AF  26193.88456716  .00002020  00000+0  29393-3 0  9991
2 67793  51.9005 349.5171 0000686 130.4146 229.6876 14.79930962 24133
KUIPER-00276            
1 67794U 26030AG  26193.84539330  .00001966  00000+0  28680-3 0  9998
2 67794  51.8990 354.6740 0002309 133.5637 226.5517 14.79938895 24061
KUIPER-00279            
1 67795U 26030AH  26193.41722427 -.00000053  00000+0  22046-4 0  9991
2 67795  51.9036 346.5939 0001040 155.3794 204.7218 14.79929920 24134
CREW DRAGON 12          
1 67796U 26031A   26194.12129675  .00004316  00000+0  86456-4 0  9998
2 67796  51.6304 171.7447 0006685 289.3803  70.6462 15.48996109628637
STARLINK-36800          
1 67797U 26032A   26193.96212384  .00013608  00000+0  42287-3 0  9998
2 67797  97.2878  21.4293 0001331  42.6874 317.4472 15.33461348 24168
STARLINK-36798          
1 67798U 26032B   26194.20411897  .00010700  00000+0  33322-3 0  9997
2 67798  97.2862  21.5592 0002056 107.3571 252.7897 15.33450283 24194
STARLINK-36804          
1 67799U 26032C   26193.95941321  .00014815  00000+0  46025-3 0  9994
2 67799  97.2857  21.2814 0001071  96.9785 263.1580 15.33449684 24153
STARLINK-36354          
1 67800U 26032D   26193.94852512  .00012771  00000+0  39693-3 0  9991
2 67800  97.2856  21.2977 0001384  85.5053 274.6348 15.33470001 24150
STARLINK-36773          
1 67801U 26032E   26193.95668064  .00020322  00000+0  62964-3 0  9998
2 67801  97.2855  21.2869 0000995  70.6905 289.4446 15.33469293 24152
STARLINK-36739          
1 67802U 26032F   26193.93221560  .00018202  00000+0  56498-3 0  9992
2 67802  97.2858  21.3192 0001618  89.5321 270.6107 15.33433245 24154
STARLINK-36768          
1 67803U 26032G   26193.95125969  .00017140  00000+0  53194-3 0  9991
2 67803  97.2855  21.2934 0001221  82.3899 277.7483 15.33451326 24151
STARLINK-36792          
1 67804U 26032H   26193.95396851  .00026564  00000+0  82135-3 0  9999
2 67804  97.2839  21.2885 0001507  92.4385 267.7030 15.33480485 24153
STARLINK-36782          
1 67805U 26032J   26193.98116504  .00012976  00000+0  40343-3 0  9995
2 67805  97.2862  21.4067 0001848  86.3591 273.7863 15.33455446 24164
STARLINK-36389          
1 67806U 26032K   26193.93766194  .00014359  00000+0  44600-3 0  9994
2 67806  97.2852  21.3112 0000987  51.4520 308.6811 15.33463000 24157
STARLINK-36382          
1 67807U 26032L   26193.93493998  .00014494  00000+0  45027-3 0  9998
2 67807  97.2855  21.3123 0000877 117.9454 242.1878 15.33455515 24152
STARLINK-36811          
1 67808U 26032M   26193.91862828  .00012925  00000+0  40184-3 0  9995
2 67808  97.2844  21.3368 0000884  62.7200 297.4133 15.33456692 24150
STARLINK-36795          
1 67809U 26032N   26193.94582159  .00013028  00000+0  40512-3 0  9995
2 67809  97.2856  21.3012 0001514  98.9418 261.1996 15.33448874 24151
STARLINK-36807          
1 67810U 26032P   26193.98660847  .00016946  00000+0  52635-3 0  9993
2 67810  97.2873  21.4011 0001930  97.8801 262.2661 15.33426698 24160
STARLINK-36733          
1 67811U 26032Q   26193.51623814  .00018422  00000+0  57116-3 0  9996
2 67811  97.2806  20.9617 0001397  77.4831 282.6568 15.33467182 24094
STARLINK-36377          
1 67812U 26032R   26193.51350771  .00017746  00000+0  55059-3 0  9998
2 67812  97.2840  20.9683 0001313  45.9828 314.1523 15.33452401 24090
STARLINK-36732          
1 67813U 26032S   26193.51894267  .00017212  00000+0  53404-3 0  9992
2 67813  97.2810  20.9587 0002309  90.6970 269.4537 15.33456475 24094
STARLINK-36767          
1 67814U 26032T   26193.94037708  .00014276  00000+0  44349-3 0  9994
2 67814  97.2858  21.3079 0000802  39.0353 321.0948 15.33458554 24154
STARLINK-36797          
1 67815U 26032U   26193.99204163  .00009920  00000+0  30912-3 0  9992
2 67815  97.2848  21.3873 0001073  75.8400 284.2962 15.33451308 24165
STARLINK-36343          
1 67816U 26032V   26193.96757084  .00015785  00000+0  49013-3 0  9993
2 67816  97.2861  21.4249 0001158 100.8808 259.2565 15.33452725 24169
STARLINK-36756          
1 67817U 26032W   26193.52166014  .00011278  00000+0  35108-3 0  9996
2 67817  97.2844  20.9594 0001741  93.9454 266.1988 15.33449914 24088
STARLINK-36346          
1 67818U 26032X   26193.96484880  .00011815  00000+0  36763-3 0  9994
2 67818  97.2867  21.4295 0001215 101.1799 258.9581 15.33452839 24165
