OBJECT_NAME,OBJECT_ID,EPOCH,MEAN_MOTION,ECCENTRICITY,INCLINATION,RA_OF_ASC_NODE,ARG_OF_PERICENTER,MEAN_ANOMALY,EPHEMERIS_TYPE,CLASSIFICATION_TYPE,NORAD_CAT_ID,ELEMENT_SET_NO,REV_AT_EPOCH,BSTAR,MEAN_MOTION_DOT,MEAN_MOTION_DDOT
KUIPER-00266,2026-030AB,2026-07-12T20:58:12.471744,14.79942030,.000249,51.9014,359.5622,168.4551,191.6469,0,U,67789,999,2399,.27287288E-3,.186E-4,0
KUIPER-00268,2026-030AC,2026-07-12T21:50:47.493024,14.79911540,.00006055,51.9053,356.9154,115.5725,244.5300,0,U,67790,999,2403,.25824686E-3,.1747E-4,0
KUIPER-00270,2026-030AD,2026-07-12T18:02:44.708640,14.79998727,.0000865,51.8997,347.5977,36.5271,323.5750,0,U,67791,999,2415,.27027102E-3,.1843E-4,0
KUIPER-00274,2026-030AE,2026-07-12T20:42:41.485824,14.79927757,.00006383,51.9040,9.6033,156.5523,203.5469,0,U,67792,999,2385,.22018718E-3,.1458E-4,0
KUIPER-00275,2026-030AF,2026-07-12T21:13:46.602624,14.79930962,.00006869,51.9005,349.5171,130.4146,229.6876,0,U,67793,999,2413,.29393008E-3,.202E-4,0
KUIPER-00276,2026-030AG,2026-07-12T20:17:21.981120,14.79938895,.00023099,51.8990,354.6740,133.5637,226.5517,0,U,67794,999,2406,.28679728E-3,.1966E-4,0
KUIPER-00279,2026-030AH,2026-07-12T10:00:48.176928,14.79929920,.00010404,51.9036,346.5939,155.3794,204.7218,0,U,67795,999,2413,.22045824E-4,-.53E-6,0
CREW DRAGON 12,2026-031A,2026-07-13T02:54:40.039200,15.48996109,.00066854,51.6304,171.7447,289.3803,70.6462,0,U,67796,999,62863,.86456021E-4,.4316E-4,0
STARLINK-36800,2026-032A,2026-07-12T23:05:27.499776,15.33461348,.00013317,97.2878,21.4293,42.6874,317.4472,0,U,67797,999,2416,.42286749E-3,.13608E-3,0
STARLINK-36798,2026-032B,2026-07-13T04:53:55.879008,15.33450283,.00020567,97.2862,21.5592,107.3571,252.7897,0,U,67798,999,2419,.33321808E-3,.107E-3,0
STARLINK-36804,2026-032C,2026-07-12T23:01:33.301344,15.33449684,.00010713,97.2857,21.2814,96.9785,263.1580,0,U,67799,999,2415,.46025404E-3,.14815E-3,0
STARLINK-36354,2026-032D,2026-07-12T22:45:52.570368,15.33470001,.00013846,97.2856,21.2977,85.5053,274.6348,0,U,67800,999,2415,.39693099E-3,.12771E-3,0
STARLINK-36773,2026-032E,2026-07-12T22:57:37.207296,15.33469293,.00009959,97.2855,21.2869,70.6905,289.4446,0,U,67801,999,2415,.62963786E-3,.20322E-3,0
STARLINK-36739,2026-032F,2026-07-12T22:22:23.427840,15.33433245,.00016183,97.2858,21.3192,89.5321,270.6107,0,U,67802,999,2415,.5649777E-3,.18202E-3,0
STARLINK-36768,2026-032G,2026-07-12T22:49:48.837216,15.33451326,.00012212,97.2855,21.2934,82.3899,277.7483,0,U,67803,999,2415,.53194187E-3,.1714E-3,0
STARLINK-36792,2026-032H,2026-07-12T22:53:42.879264,15.33480485,.00015078,97.2839,21.2885,92.4385,267.7030,0,U,67804,999,2415,.82134706E-3,.26564E-3,0
STARLINK-36782,2026-032J,2026-07-12T23:32:52.659456,15.33455446,.00018483,97.2862,21.4067,86.3591,273.7863,0,U,67805,999,2416,.40343481E-3,.12976E-3,0
STARLINK-36389,2026-032K,2026-07-12T22:30:13.991616,15.33463000,.0000987,97.2852,21.3112,51.4520,308.6811,0,U,67806,999,2415,.44600016E-3,.14359E-3,0
STARLINK-36382,2026-032L,2026-07-12T22:26:18.814272,15.33455515,.00008779,97.2855,21.3123,117.9454,242.1878,0,U,67807,999,2415,.45027234E-3,.14494E-3,0
STARLINK-36811,2026-032M,2026-07-12T22:02:49.483392,15.33456692,.00008848,97.2844,21.3368,62.7200,297.4133,0,U,67808,999,2415,.40184482E-3,.12925E-3,0
STARLINK-36795,2026-032N,2026-07-12T22:41:58.985376,15.33448874,.00015144,97.2856,21.3012,98.9418,261.1996,0,U,67809,999,2415,.40511651E-3,.13028E-3,0
STARLINK-36807,2026-032P,2026-07-12T23:40:42.971808,15.33426698,.00019301,97.2873,21.4011,97.8801,262.2661,0,U,67810,999,2416,.52634714E-3,.16946E-3,0
STARLINK-36733,2026-032Q,2026-07-12T12:23:22.975296,15.33467182,.00013973,97.2806,20.9617,77.4831,282.6568,0,U,67811,999,2409,.57115629E-3,.18422E-3,0
STARLINK-36377,2026-032R,2026-07-12T12:19:27.066144,15.33452401,.00013136,97.2840,20.9683,45.9828,314.1523,0,U,67812,999,2409,.55058805E-3,.17746E-3,0
STARLINK-36732,2026-032S,2026-07-12T12:27:16.646688,15.33456475,.00023098,97.2810,20.9587,90.6970,269.4537,0,U,67813,999,2409,.53403835E-3,.17212E-3,0
STARLINK-36767,2026-032T,2026-07-12T22:34:08.579712,15.33458554,.00008026,97.2858,21.3079,39.0353,321.0948,0,U,67814,999,2415,.44349177E-3,.14276E-3,0
STARLINK-36797,2026-032U,2026-07-12T23:48:32.396832,15.33451308,.00010736,97.2848,21.3873,75.8400,284.2962,0,U,67815,999,2416,.3091203E-3,.992E-4,0
STARLINK-36343,2026-032V,2026-07-12T23:13:18.120576,15.33452725,.00011586,97.2861,21.4249,100.8808,259.2565,0,U,67816,999,2416,.49013348E-3,.15785E-3,0
STARLINK-36756,2026-032W,2026-07-12T12:31:11.436096,15.33449914,.00017416,97.2844,20.9594,93.9454,266.1988,0,U,67817,999,2408,.35107779E-3,.11278E-3,0
STARLINK-36346,2026-032X,2026-07-12T23:09:22.936320,15.33452839,.00012152,97.2867,21.4295,101.1799,258.9581,0,U,67818,999,2416,.36762982E-3,.11815E-3,0
